NORAD_CAT_ID,OBJECT_NAME,OBJECT_TYPE,EPOCH,MEAN_MOTION,ECCENTRICITY,INCLINATION,RA_OF_ASC_NODE,ARG_OF_PERICENTER,MEAN_ANOMALY,BSTAR,MEAN_MOTION_DOT,MEAN_MOTION_DDOT,TLE_LINE0,TLE_LINE1,TLE_LINE2,SEMIMAJOR_AXIS,PERIOD,APOGEE,PERIGEE,DECAYED
52372.0,STARLINK-3796,PAYLOAD,2022-08-14 06:00:02,15.08866382,0.0001935,53.2158,280.4744,53.5963,102.061,-0.00096074,-0.00015557,0.0,0 STARLINK-3796,1 52372U 22045AT  22226.25002315 -.00015557  00000-0 -96074-3 0  9998,2 52372  53.2158 280.4744 0001935  53.5963 102.0610 15.08866382 19134,6917.8,95.436,541.003,538.326,0.0
52372.0,STARLINK-3796,PAYLOAD,2022-08-14 14:00:01,15.08839379,0.0002058,53.2158,278.9793,46.9262,120.2926,0.0021154,0.00033539,0.0,0 STARLINK-3796,1 52372U 22045AT  22226.58334491  .00033539  00000-0  21154-2 0  9991,2 52372  53.2158 278.9793 0002058  46.9262 120.2926 15.08839379  1303,6917.882,95.438,541.1709999999998,538.3240000000002,0.0
52372.0,STARLINK-3796,PAYLOAD,2022-08-14 22:00:00,15.08840907,0.0001858,53.2159,277.4811,49.3962,129.441,-0.00031296,-5.266e-05,0.0,0 STARLINK-3796,1 52372U 22045AT  22226.91667824 -.00005266  00000-0 -31296-3 0  9994,2 52372  53.2159 277.4811 0001858  49.3962 129.4410 15.08840907  1308,6917.878000000002,95.437,541.028,538.457,0.0
52372.0,STARLINK-3796,PAYLOAD,2022-08-15 14:00:01,15.08819129,0.0002052,53.2161,274.4897,45.2978,156.7337,0.00312,0.00049689,0.0,0 STARLINK-3796,1 52372U 22045AT  22227.58334491  .00049689  00000-0  31200-2 0  9998,2 52372  53.2161 274.4897 0002052  45.2978 156.7337 15.08819129  1304,6917.944,95.439,541.229,538.39,0.0
52372.0,STARLINK-3796,PAYLOAD,2022-08-15 16:00:00,15.08843991,0.000202,53.2158,274.1153,45.2956,249.6263,0.0003633,5.499e-05,0.0,0 STARLINK-3796,1 52372U 22045AT  22227.66667824  .00005499  00000-0  36330-3 0  9997,2 52372  53.2158 274.1153 0002020  45.2956 249.6263 15.08843991 19340,6917.868,95.437,541.131,538.336,0.0
52372.0,STARLINK-3796,PAYLOAD,2022-08-15 22:00:00,15.08836706,0.000187,53.2163,272.9915,49.2264,164.4041,0.0011684,0.00018354,0.0,0 STARLINK-3796,1 52372U 22045AT  22227.91667824  .00018354  00000-0  11684-2 0  9993,2 52372  53.2163 272.9915 0001870  49.2264 164.4041 15.08836706  1307,6917.89,95.438,541.049,538.462,0.0
52372.0,STARLINK-3796,PAYLOAD,2022-08-16 14:00:01,15.08806987,0.0001985,53.2162,270.0002,43.3173,193.5191,0.0028281,0.00044968,0.0,0 STARLINK-3796,1 52372U 22045AT  22228.58334491  .00044968  00000-0  28281-2 0  9999,2 52372  53.2162 270.0002 0001985  43.3173 193.5191 15.08806987  1300,6917.981,95.44,541.22,538.4730000000002,0.0
52372.0,STARLINK-3796,PAYLOAD,2022-08-16 22:00:00,15.08816228,0.0001798,53.2164,268.502,47.9899,200.4289,0.0016830999999999,0.00026583,0.0,0 STARLINK-3796,1 52372U 22045AT  22228.91667824  .00026583  00000-0  16831-2 0  9996,2 52372  53.2164 268.5020 0001798  47.9899 200.4289 15.08816228  1306,6917.953,95.439,541.062,538.5740000000002,0.0
52372.0,STARLINK-3796,PAYLOAD,2022-08-17 06:00:02,15.08884812,0.0001857,53.2171,267.0094,51.3518,208.7145,-0.0052415,-0.00082851,0.0,0 STARLINK-3796,1 52372U 22045AT  22229.25002315 -.00082851  00000-0 -52415-2 0  9992,2 52372  53.2171 267.0094 0001857  51.3518 208.7145 15.08884812 19587,6917.743,95.435,540.893,538.3240000000002,0.0
52372.0,STARLINK-3796,PAYLOAD,2022-08-17 14:00:01,15.08841805,0.0001948,53.2161,265.5108,45.2756,226.3473,0.00085119,0.00013285,0.0,0 STARLINK-3796,1 52372U 22045AT  22229.58334491  .00013285  00000-0  85119-3 0  9992,2 52372  53.2161 265.5108 0001948  45.2756 226.3473 15.08841805 19633,6917.875,95.437,541.087,538.3919999999998,0.0
52372.0,STARLINK-3796,PAYLOAD,2022-08-17 16:00:00,15.08871347,0.0001913,53.216,265.1362,44.89,319.626,-0.003438,-0.00054637,0.0,0 STARLINK-3796,1 52372U 22045AT  22229.66667824 -.00054637  00000-0 -34380-2 0  9991,2 52372  53.2160 265.1362 0001913  44.8900 319.6260 15.08871347  1307,6917.785,95.436,540.9730000000002,538.326,0.0
52372.0,STARLINK-3796,PAYLOAD,2022-08-18 08:00:01,15.08841864,0.0001858,53.2161,262.1435,47.4143,340.2999,-0.0013793,-0.00022174,0.0,0 STARLINK-3796,1 52372U 22045AT  22230.33334491 -.00022174  00000-0 -13793-2 0  9994,2 52372  53.2161 262.1435 0001858  47.4143 340.2999 15.08841864 19750,6917.875,95.437,541.025,538.4540000000002,0.0
52372.0,STARLINK-3796,PAYLOAD,2022-08-18 14:00:01,15.08824825,0.0001895,53.2158,261.0216,44.4151,261.9959,0.0018838,0.00029808,0.0,0 STARLINK-3796,1 52372U 22045AT  22230.58334491  .00029808  00000-0  18838-2 0  9995,2 52372  53.2158 261.0216 0001895  44.4151 261.9959 15.08824825  1303,6917.927,95.439,541.1030000000002,538.481,0.0
52372.0,STARLINK-3796,PAYLOAD,2022-08-18 22:00:00,15.08818511,0.0001733,53.2158,259.5235,50.7198,267.2897,0.0026886999999999,0.00042737,0.0,0 STARLINK-3796,1 52372U 22045AT  22230.91667824  .00042737  00000-0  26887-2 0  9990,2 52372  53.2158 259.5235 0001733  50.7198 267.2897 15.08818511  1303,6917.946,95.439,541.01,538.612,0.0
52372.0,STARLINK-3796,PAYLOAD,2022-08-19 14:00:01,15.0882106,0.0001864,53.2154,256.5325,43.24800000000001,297.9544,0.00057246,8.83e-05,0.0,0 STARLINK-3796,1 52372U 22045AT  22231.58334491  .00008830  00000-0  57246-3 0  9995,2 52372  53.2154 256.5325 0001864  43.2480 297.9544 15.08821060  1304,6917.938,95.439,541.0930000000002,538.514,0.0
52372.0,STARLINK-3796,PAYLOAD,2022-08-19 16:00:00,15.08834072,0.0001836,53.2154,256.1579,43.8214,30.272,-0.0012857,-0.00020689,0.0,0 STARLINK-3796,1 52372U 22045AT  22231.66667824 -.00020689  00000-0 -12857-2 0  9999,2 52372  53.2154 256.1579 0001836  43.8214  30.2720 15.08834072 19952,6917.899,95.438,541.034,538.493,0.0
52372.0,STARLINK-3796,PAYLOAD,2022-08-19 22:00:00,15.08798672,0.0001694,53.2154,255.0344,49.1046,303.6808,0.0028381,0.00045119,0.0,0 STARLINK-3796,1 52372U 22045AT  22231.91667824  .00045119  00000-0  28381-2 0  9999,2 52372  53.2154 255.0344 0001694  49.1046 303.6808 15.08798672  1303,6918.007,95.44,541.044,538.7,0.0
52372.0,STARLINK-3796,PAYLOAD,2022-08-20 14:00:01,15.08824677,0.0001928,53.2152,252.0434,42.9879,332.9408,0.00081567,0.00012712,0.0,0 STARLINK-3796,1 52372U 22045AT  22232.58334491  .00012712  00000-0  81567-3 0  9993,2 52372  53.2152 252.0434 0001928  42.9879 332.9408 15.08824677  1309,6917.927,95.439,541.126,538.4580000000002,0.0
52372.0,STARLINK-3796,PAYLOAD,2022-08-20 16:00:00,15.08842947,0.0001909999999999,53.2152,251.6688,44.4934,64.3257,-0.0015821,-0.00025382,0.0,0 STARLINK-3796,1 52372U 22045AT  22232.66667824 -.00025382  00000-0 -15821-2 0  9999,2 52372  53.2152 251.6688 0001910  44.4934  64.3257 15.08842947 20102,6917.871,95.437,541.058,538.415,0.0
52372.0,STARLINK-3796,PAYLOAD,2022-08-20 22:00:00,15.08807045,0.0001778,53.2153,250.5453,49.1664,338.3540000000001,0.0029858,0.00047509,0.0,0 STARLINK-3796,1 52372U 22045AT  22232.91667824  .00047509  00000-0  29858-2 0  9995,2 52372  53.2153 250.5453 0001778  49.1664 338.3540 15.08807045  1305,6917.981,95.44,541.076,538.616,0.0
52372.0,STARLINK-3796,PAYLOAD,2022-08-21 06:00:00,15.0884779,0.0001955,53.2154,249.0503,47.6382,351.4547,-0.0018277,-0.00029265,0.0,0 STARLINK-3796,1 52372U 22045AT  22233.25001157 -.00029265  00000-0 -18277-2 0  9998,2 52372  53.2154 249.0503 0001955  47.6382 351.4547 15.08847790 20194,6917.857,95.437,541.0740000000002,538.369,0.0
52372.0,STARLINK-3796,PAYLOAD,2022-08-21 14:00:01,15.08835646,0.0002032,53.2152,247.5542,43.4878,7.1937,0.00035318,5.337e-05,0.0,0 STARLINK-3796,1 52372U 22045AT  22233.58334491  .00005337  00000-0  35318-3 0  9992,2 52372  53.2152 247.5542 0002032  43.4878   7.1937 15.08835646  1306,6917.894,95.438,541.164,538.3530000000002,0.0
52372.0,STARLINK-3796,PAYLOAD,2022-08-21 22:00:00,15.08815534,0.0001883,53.2154,246.0562,49.3687,12.9139,0.0028938,0.00046037,0.0,0 STARLINK-3796,1 52372U 22045AT  22233.91667824  .00046037  00000-0  28938-2 0  9999,2 52372  53.2154 246.0562 0001883  49.3687  12.9139 15.08815534 20291,6917.955,95.439,541.123,538.518,0.0
52372.0,STARLINK-3796,PAYLOAD,2022-08-22 12:00:00,15.08825475,0.0002142,53.2155,243.4395,44.5182,308.0547,0.0024701999999999,0.00039229,0.0,0 STARLINK-3796,1 52372U 22045AT  22234.50001157  .00039229  00000-0  24702-2 0  9996,2 52372  53.2155 243.4395 0002142  44.5182 308.0547 15.08825475  1301,6917.925,95.438,541.2719999999998,538.308,0.0
52372.0,STARLINK-3796,PAYLOAD,2022-08-22 22:00:00,15.08826105,0.0001973,53.2156,241.567,50.1252,46.9512,0.0026690999999999,0.00042431,0.0,0 STARLINK-3796,1 52372U 22045AT  22234.91667824  .00042431  00000-0  26691-2 0  9998,2 52372  53.2156 241.5670 0001973  50.1252  46.9512 15.08826105  1300,6917.9230000000025,95.438,541.153,538.423,0.0
52372.0,STARLINK-3796,PAYLOAD,2022-08-23 06:00:00,15.08870684,0.000213,53.2156,240.072,47.5002,61.1717,-0.0035269,-0.00056031,0.0,0 STARLINK-3796,1 52372U 22045AT  22235.25001157 -.00056031  00000-0 -35269-2 0  9991,2 52372  53.2156 240.0720 0002130  47.5002  61.1717 15.08870684 20497,6917.7869999999975,95.436,541.125,538.178,0.0
52372.0,STARLINK-3796,PAYLOAD,2022-08-23 14:00:01,15.0883643,0.0002118,53.2155,238.5757,43.79,76.4883,-0.0011710999999999,-0.00018877,0.0,0 STARLINK-3796,1 52372U 22045AT  22235.58334491 -.00018877  00000-0 -11711-2 0  9999,2 52372  53.2155 238.5757 0002118  43.7900  76.4883 15.08836430  1302,6917.891,95.438,541.222,538.2909999999998,0.0
52372.0,STARLINK-3796,PAYLOAD,2022-08-23 22:00:01,15.08808256,0.0001945,53.2157,237.0778,49.3745,82.5557,0.0023859,0.00037855,0.0,0 STARLINK-3796,1 52372U 22045AT  22235.91668981  .00037855  00000-0  23859-2 0  9991,2 52372  53.2157 237.0778 0001945  49.3745  82.5557 15.08808256 20590,6917.977,95.44,541.188,538.497,0.0
52372.0,STARLINK-3796,PAYLOAD,2022-08-24 14:00:01,15.08840845,0.0002136,53.2153,234.0864,45.2602,109.7591,-0.001168,-0.0001883,0.0,0 STARLINK-3796,1 52372U 22045AT  22236.58334491 -.00018830  00000-0 -11680-2 0  9994,2 52372  53.2153 234.0864 0002136  45.2602 109.7591 15.08840845  1307,6917.878000000002,95.438,541.22,538.265,0.0
